# Made by eph2tle, compiled Oct 15 2024 16:52:11
# Run at Thu Oct 17 16:41:23 2024
#
#    The following TLEs (Two-Line Elements) were generated by fitting
# a numerically-integrated ephemeris,  based on the orbit given below,
# to the SDP4/SGP4 models.  Each TLE is good for the interval between
# its epoch and the epoch of the subsequent TLE (usually one day).
# The maximum deviation between the numerically integrated ephemerides
# and the TLE-based ephemeris, in kilometers,  is given for each TLE
# as the "worst residual".
#
#    This fitting is done using the 'eph2tle' code packaged with Find_Orb.
# The code has details on how the TLEs were computed :
#
#    https://github.com/Bill-Gray/find_orb/eph2tle.cpp
#
#    Be warned:  the error given is that between the numerically
# integrated ephems and the TLE model.  There will usually be at
# least some additional difference between the ephems and the actual
# motion of the satellite,  especially if the ephemerides are based
# on a short arc.  If the following orbital elements say something
# like "[based on] 10 observations 2015 Jan. 1-13",  and the TLEs
# are for 2015 May,  the extrapolation may be tenuous at best.  If
# your application requires a specific level of accuracy,  you may
# want to contact me;  I can give you some idea as to the fit of the
# underlying data (and possibly TLEs based on newer data).
#
#   You can usually find the underlying observational data,  and the
# fitted orbit,  residuals,  ephemerides,  and sometimes some comments
# about the object,  among the pages listed at
#
#    https://www.projectpluto.com/pluto/mpecs/pseudo.htm
#
#    WARNING:  for this object,  "normal" TLEs cannot be fitted.  (This
# usually means an object with an hyperbolic or nearly-parabolic orbit.)
# For this and similar cases,   an alternative model is used,  in which
# most of the traditional TLE data is replaced by six signed 8-digit hex
# numbers.  These six numbers are a state vector,  numerically integrated
# using a simplified force model.  This is necessary for objects at L2 or
# L1,  and sometimes for objects in high orbits where the SDP4/SGP4 model
# fails.  Some documentation is in 'get_el.cpp' in the source code at
# https://www.github.com/Bill-Gray/sat_code ; look for 'hex' in that file,
# with the actual integration done in 'sdp4.cpp'.  But be aware:  it's my
# own extension,  doesn't work with other code,  and is therefore used
# only when necessary.
#
#    Also,  if you use a TLE outside the "correct" time range (between
# its MJD and that of the next TLE),  all bets are off.  I've carefully
# computed and minimized the worst error over the "correct" time frame,
# but the ephemeris may (or may not) diverge wildly outside of it.
#
# Ephem range: 60590.700000 60640.700000 1.000000
# Created Thu Oct 17 16:39:42 2024
# Ephemeris start:  7 Oct 2024 16:48:00
# Ephemeris end:   26 Nov 2024 16:48:00
# Times are all TDT
# Positions/velocities are in equatorial J2000
# Orbital elements:  Hera upper stage
#    Perigee 2024 Oct 7.6573 +/- 3.08e-5 TT = 15:46:30 (JD 2460591.1573)
# Epoch 2024 Oct  9.0 TT = JDT 2460592.5                           Find_Orb
# q  6562.7927 +/- 1.88               (J2000 equator)
# H   25.40 G 0.15                    Peri.  321.2001 +/- 0.009
#                                     Node    34.6864 +/- 0.0042
# e   1.516564 +/- 0.000308           Incl.   34.0665 +/- 0.000050
# 48 of 65 observations 2024 Oct. 7-9; mean residual 1".484
#
# 1 NoradU COSPAR   Epoch.epoch     dn/dt/2  d2n/dt2/6 BSTAR    T El# C
# 2 NoradU Inclina RAAscNode Eccent  ArgPeri MeanAno  MeanMotion Rev# C

# Worst residual: 7.06 km
# MJD 60590.700000 (2024 Oct  7 16:48)
Hera upper stage
1 99999U 24180Z   24281.69919926 -0002TJ8L +000FH796 +0009N2XOH 24829
2 99999                          -000L2279 +000USHMF +000P5AYS     03

# Worst residual: 29.58 km
# MJD 60591.700000 (2024 Oct  8 16:48)
Hera upper stage
1 99999U 24180Z   24282.69919926 -004EML1S +0060L6BG +0050Y1MMH 24820
2 99999                          -000HFJYC +000MAPWB +000J1X70     06

# Worst residual: 2.05 km
# MJD 60592.700000 (2024 Oct  9 16:48)
Hera upper stage
1 99999U 24180Z   24283.69919926 -008KAYGZ +00BBZ0DW +009KHO60H 24821
2 99999                          -000H94UN +000M1YYL +000IUH1I     03

# Worst residual: 1.19 km
# MJD 60593.700000 (2024 Oct 10 16:48)
Hera upper stage
1 99999U 24180Z   24284.69919926 -00CP31TP +00GM2QMJ +00E2XN3FH 24820
2 99999                          -000H70S8 +000LYKQ3 +000IRISF     06

# Worst residual: 1.35 km
# MJD 60594.700000 (2024 Oct 11 16:48)
Hera upper stage
1 99999U 24180Z   24285.69919926 -00GTJ74Z +00LVJDDQ +00IKTHY8H 24829
2 99999                          -000H66AR +000LWD9X +000IPLQB     09

# Worst residual: 1.73 km
# MJD 60595.700000 (2024 Oct 12 16:48)
Hera upper stage
1 99999U 24180Z   24286.69919926 -00KXUR53 +00R4IH23 +00N2A8VYH 24828
2 99999                          -000H5W40 +000LUFQ8 +000INYGE     05

# Worst residual: 2.25 km
# MJD 60596.700000 (2024 Oct 13 16:48)
Hera upper stage
1 99999U 24180Z   24287.69919926 -00P258KV +00WD0SHK +00RJCVX1H 24828
2 99999                          -000H5W4Y +000LSG5D +000IMB4J     06

# Worst residual: 2.80 km
# MJD 60597.700000 (2024 Oct 14 16:48)
Hera upper stage
1 99999U 24180Z   24288.69919926 -00T6GCRX +011L132E +00W00SLKH 24827
2 99999                          -000H60IA +000LQ8W3 +000IKJ5X     00

# Worst residual: 3.24 km
# MJD 60598.700000 (2024 Oct 15 16:48)
Hera upper stage
1 99999U 24180Z   24289.69919926 -00XASL3H +016SH442 +010G8JC8H 24821
2 99999                          -000H64NX +000LNQY5 +000IIK4W     07

# Worst residual: 3.42 km
# MJD 60599.700000 (2024 Oct 16 16:48)
Hera upper stage
1 99999U 24180Z   24290.69919926 -011F5DJS +01BZA43O +014VY8WPH 24824
2 99999                          -000H64G1 +000LKWVF +000IGCRN     09

# Worst residual: 3.36 km
# MJD 60600.700000 (2024 Oct 17 16:48)
Hera upper stage
1 99999U 24180Z   24291.69919926 -015JH74X +01H5D4E1 +019B3US4H 24822
2 99999                          -000H5VWX +000LHQFI +000IDWLX     03

# Worst residual: 3.25 km
# MJD 60601.700000 (2024 Oct 18 16:48)
Hera upper stage
1 99999U 24180Z   24292.69919926 -019NPMBD +01MAN8VH +01DPN9FWH 24827
2 99999                          -000H5BIJ +000LE8ET +000IB7US     08

# Worst residual: 3.32 km
# MJD 60602.700000 (2024 Oct 19 16:48)
Hera upper stage
1 99999U 24180Z   24293.69919926 -01DRRFB5 +01RF1VV7 +01I3IHA7H 24825
2 99999                          -000H4CAX +000LAGDW +000I8B6O     06

# Worst residual: 3.67 km
# MJD 60603.700000 (2024 Oct 20 16:48)
Hera upper stage
1 99999U 24180Z   24294.69919926 -01HVIS5H +01WIIVHP +01MGNPYFH 24828
2 99999                          -000H2W3I +000L6GE1 +000I57KG     02

# Worst residual: 4.23 km
# MJD 60604.700000 (2024 Oct 21 16:48)
Hera upper stage
1 99999U 24180Z   24295.69919926 -01LYVFAG +021L0KBE +01QT1G2KH 24829
2 99999                          -000H0XGE +000L2ALY +000I1Y2Z     03

# Worst residual: 4.84 km
# MJD 60605.700000 (2024 Oct 22 16:48)
Hera upper stage
1 99999U 24180Z   24296.69919926 -01Q1OTEY +026MHTMJ +01V4MDJDH 24827
2 99999                          -000GYFJ3 +000KY15Y +000HYJSA     07

# Worst residual: 5.33 km
# MJD 60606.700000 (2024 Oct 23 16:48)
Hera upper stage
1 99999U 24180Z   24297.69919926 -01U3U9SN +02BMY0A4 +01ZFDH26H 24821
2 99999                          -000GVDVS +000KTPZU +000HV1ND     09

# Worst residual: 5.66 km
# MJD 60607.700000 (2024 Oct 24 16:48)
Hera upper stage
1 99999U 24180Z   24298.69919926 -01Y5711O +02GMCX23 +023P9XAZH 24820
2 99999                          -000GRSBD +000KPEUJ +000HRGJO     08

# Worst residual: 5.86 km
# MJD 60608.700000 (2024 Oct 25 16:48)
Hera upper stage
1 99999U 24180Z   24299.69919926 -0225MAPS +02LKQR34 +027YB43AH 24829
2 99999                          -000GNMRJ +000KL5B0 +000HNT9H     02

# Worst residual: 6.00 km
# MJD 60609.700000 (2024 Oct 26 16:48)
Hera upper stage
1 99999U 24180Z   24300.69919926 -0264ZA66 +02QI42N7 +02C6GLRBH 24825
2 99999                          -000GIX8X +000KGYU3 +000HK4IY     03

# Worst residual: 6.15 km
# MJD 60610.700000 (2024 Oct 27 16:48)
Hera upper stage
1 99999U 24180Z   24301.69919926 -02A3576W +02VEHSBT +02GDQ4Q2H 24822
2 99999                          -000GDNUB +000KCWTT +000HGF0Q     08

# Worst residual: 6.37 km
# MJD 60611.700000 (2024 Oct 28 16:48)
Hera upper stage
1 99999U 24180Z   24302.69919926 -02DZZAIO +0309X4HH +02KK3L6NH 24829
2 99999                          -000G7UOZ +000K90M6 +000HCPEC     00

# Worst residual: 6.65 km
# MJD 60612.700000 (2024 Oct 29 16:48)
Hera upper stage
1 99999U 24180Z   24303.69919926 -02HVCUH9 +0354FMRZ +02OPL0VXH 24826
2 99999                          -000G1I0Y +000K5BHF +000H90AI     03

# Worst residual: 6.96 km
# MJD 60613.700000 (2024 Oct 30 16:48)
Hera upper stage
1 99999U 24180Z   24304.69919926 -02LP57PL +039Y35Q8 +02SU6MW3H 24825
2 99999                          -000FUM5F +000K1UNR +000H5CAS     09

# Worst residual: 7.27 km
# MJD 60614.700000 (2024 Oct 31 16:48)
Hera upper stage
1 99999U 24180Z   24305.69919926 -02PH7TWY +03EQXU6V +02WXWRAGH 24823
2 99999                          -000FN7GS +000JYNAY +000H1PZF     06

# Worst residual: 7.55 km
# MJD 60615.700000 (2024 Nov  1 16:48)
Hera upper stage
1 99999U 24180Z   24306.69919926 -02T7G8L8 +03JJ22NU +0310RUUFH 24820
2 99999                          -000FFAG6 +000JVQHJ +000GY5V2     01

# Worst residual: 7.80 km
# MJD 60616.700000 (2024 Nov  2 16:48)
Hera upper stage
1 99999U 24180Z   24307.69919926 -02WVQ3MA +03OAIIGP +0352SIJVH 24823
2 99999                          -000F6VMW +000JT56F +000GUOEC     05

# Worst residual: 8.02 km
# MJD 60617.700000 (2024 Nov  3 16:48)
Hera upper stage
1 99999U 24180Z   24308.69919926 -030HX7OT +03T1E0TH +0393ZF5BH 24820
2 99999                          -000EXZLF +000JQW8H +000GR9ZR     05

